ALOS-2                  
1 39766U 14029A   26087.85881583  .00001583  00000+0  21891-3 0  9996
2 39766  97.9187 186.1772 0001919 102.0688 258.0738 14.79445691639709
YAOGAN-29               
1 41038U 15069A   26087.88896317  .00000260  00000+0  38633-4 0  9994
2 41038  98.0122 116.3680 0000477   1.7235 358.3980 14.83014041558720
ASTRO-H (HITOMI)        
1 41337U 16012A   26087.73700318  .00003309  00000+0  19220-3 0  9991
2 41337  30.9987 233.6186 0009643 163.5809 196.5142 15.10121702555114
HXMT (HUIYAN)           
1 42758U 17034A   26087.86471816  .00005804  00000+0  29062-3 0  9993
2 42758  43.0138 270.0486 0031893 353.3923   6.6501 15.17700820485451
SAOCOM 1A               
1 43641U 18076A   26087.79848486  .00000523  00000+0  72257-4 0  9993
2 43641  97.8906 275.7014 0001442  85.0877 275.0501 14.82159879404193
H-2A R/B                
1 43682U 18084L   26087.87884737  .00021578  00000+0  50049-3 0  9992
2 43682  98.8710 309.3783 0023745 318.3095  41.6337 15.42148950408736
SAOCOM 1B               
1 46265U 20059A   26087.82972119  .00000895  00000+0  11900-3 0  9996
2 46265  97.8908 274.8303 0001543  86.5562 273.5827 14.82158060301584
CSS (TIANHE)            
1 48274U 21035A   26087.71511419  .00016171  00000+0  18634-3 0  9998
2 48274  41.4668  92.3127 0003974  49.2611 310.8573 15.61588811280580
COSMOS 2550             
1 48865U 21056A   26087.49272868 -.00000186  00000+0  18968-6 0  9997
2 48865  67.1421 344.0047 0008440 269.5686  90.4502 15.33828274266348
CZ-2C R/B               
1 52794U 22058K   26087.66300685  .00046065  00000+0  63634-3 0  9996
2 52794  50.1874 220.5877 0041540 282.1630  77.4689 15.55620973213089
CZ-2C R/B               
1 54039U 22132E   26087.58182170  .00048831  00000+0  52079-3 0  9995
2 54039  97.2960  91.4974 0017701  29.7061 330.5199 15.63619581193324
GSLV R/B                
1 54149U 22138AN  26087.70700178  .00002429  00000+0  20808-3 0  9999
2 54149  87.3861 159.9961 0024052  84.1110 276.2862 14.96892763186773
