CCSDS_OMM_VERS = 2.0
CREATION_DATE  = 
ORIGINATOR     = 

OBJECT_NAME    = ALOS-2
OBJECT_ID      = 2014-029A
CENTER_NAME    = EARTH
REF_FRAME      = TEME
TIME_SYSTEM    = UTC
MEAN_ELEMENT_THEORY = SGP/SGP4

EPOCH          = 2026-03-28T20:36:41.687712
MEAN_MOTION    = 14.79445691
ECCENTRICITY   = .0001919
INCLINATION    = 97.9187
RA_OF_ASC_NODE = 186.1772
ARG_OF_PERICENTER = 102.0688
MEAN_ANOMALY   = 258.0738

EPHEMERIS_TYPE = 0
CLASSIFICATION_TYPE = U
NORAD_CAT_ID   = 39766
ELEMENT_SET_NO = 999
REV_AT_EPOCH   = 63970
BSTAR          = .21891E-3
MEAN_MOTION_DOT = .1583E-4
MEAN_MOTION_DDOT = 0

CCSDS_OMM_VERS = 2.0
CREATION_DATE  = 
ORIGINATOR     = 

OBJECT_NAME    = YAOGAN-29
OBJECT_ID      = 2015-069A
CENTER_NAME    = EARTH
REF_FRAME      = TEME
TIME_SYSTEM    = UTC
MEAN_ELEMENT_THEORY = SGP/SGP4

EPOCH          = 2026-03-28T21:20:06.417888
MEAN_MOTION    = 14.83014041
ECCENTRICITY   = .0000477
INCLINATION    = 98.0122
RA_OF_ASC_NODE = 116.3680
ARG_OF_PERICENTER = 1.7235
MEAN_ANOMALY   = 358.3980

EPHEMERIS_TYPE = 0
CLASSIFICATION_TYPE = U
NORAD_CAT_ID   = 41038
ELEMENT_SET_NO = 999
REV_AT_EPOCH   = 55872
BSTAR          = .38633E-4
MEAN_MOTION_DOT = .26E-5
MEAN_MOTION_DDOT = 0

CCSDS_OMM_VERS = 2.0
CREATION_DATE  = 
ORIGINATOR     = 

OBJECT_NAME    = ASTRO-H (HITOMI)
OBJECT_ID      = 2016-012A
CENTER_NAME    = EARTH
REF_FRAME      = TEME
TIME_SYSTEM    = UTC
MEAN_ELEMENT_THEORY = SGP/SGP4

EPOCH          = 2026-03-28T17:41:17.074752
MEAN_MOTION    = 15.10121702
ECCENTRICITY   = .0009643
INCLINATION    = 30.9987
RA_OF_ASC_NODE = 233.6186
ARG_OF_PERICENTER = 163.5809
MEAN_ANOMALY   = 196.5142

EPHEMERIS_TYPE = 0
CLASSIFICATION_TYPE = U
NORAD_CAT_ID   = 41337
ELEMENT_SET_NO = 999
REV_AT_EPOCH   = 55511
BSTAR          = .1922E-3
MEAN_MOTION_DOT = .3309E-4
MEAN_MOTION_DDOT = 0

CCSDS_OMM_VERS = 2.0
CREATION_DATE  = 
ORIGINATOR     = 

OBJECT_NAME    = HXMT (HUIYAN)
OBJECT_ID      = 2017-034A
CENTER_NAME    = EARTH
REF_FRAME      = TEME
TIME_SYSTEM    = UTC
MEAN_ELEMENT_THEORY = SGP/SGP4

EPOCH          = 2026-03-28T20:45:11.649024
MEAN_MOTION    = 15.17700820
ECCENTRICITY   = .0031893
INCLINATION    = 43.0138
RA_OF_ASC_NODE = 270.0486
ARG_OF_PERICENTER = 353.3923
MEAN_ANOMALY   = 6.6501

EPHEMERIS_TYPE = 0
CLASSIFICATION_TYPE = U
NORAD_CAT_ID   = 42758
ELEMENT_SET_NO = 999
REV_AT_EPOCH   = 48545
BSTAR          = .29062E-3
MEAN_MOTION_DOT = .5804E-4
MEAN_MOTION_DDOT = 0

CCSDS_OMM_VERS = 2.0
CREATION_DATE  = 
ORIGINATOR     = 

OBJECT_NAME    = SAOCOM 1A
OBJECT_ID      = 2018-076A
CENTER_NAME    = EARTH
REF_FRAME      = TEME
TIME_SYSTEM    = UTC
MEAN_ELEMENT_THEORY = SGP/SGP4

EPOCH          = 2026-03-28T19:09:49.091904
MEAN_MOTION    = 14.82159879
ECCENTRICITY   = .0001442
INCLINATION    = 97.8906
RA_OF_ASC_NODE = 275.7014
ARG_OF_PERICENTER = 85.0877
MEAN_ANOMALY   = 275.0501

EPHEMERIS_TYPE = 0
CLASSIFICATION_TYPE = U
NORAD_CAT_ID   = 43641
ELEMENT_SET_NO = 999
REV_AT_EPOCH   = 40419
BSTAR          = .72257E-4
MEAN_MOTION_DOT = .523E-5
MEAN_MOTION_DDOT = 0

CCSDS_OMM_VERS = 2.0
CREATION_DATE  = 
ORIGINATOR     = 

OBJECT_NAME    = H-2A R/B
OBJECT_ID      = 2018-084L
CENTER_NAME    = EARTH
REF_FRAME      = TEME
TIME_SYSTEM    = UTC
MEAN_ELEMENT_THEORY = SGP/SGP4

EPOCH          = 2026-03-28T21:05:32.412768
MEAN_MOTION    = 15.42148950
ECCENTRICITY   = .0023745
INCLINATION    = 98.8710
RA_OF_ASC_NODE = 309.3783
ARG_OF_PERICENTER = 318.3095
MEAN_ANOMALY   = 41.6337

EPHEMERIS_TYPE = 0
CLASSIFICATION_TYPE = U
NORAD_CAT_ID   = 43682
ELEMENT_SET_NO = 999
REV_AT_EPOCH   = 40873
BSTAR          = .50049E-3
MEAN_MOTION_DOT = .21578E-3
MEAN_MOTION_DDOT = 0

CCSDS_OMM_VERS = 2.0
CREATION_DATE  = 
ORIGINATOR     = 

OBJECT_NAME    = SAOCOM 1B
OBJECT_ID      = 2020-059A
CENTER_NAME    = EARTH
REF_FRAME      = TEME
TIME_SYSTEM    = UTC
MEAN_ELEMENT_THEORY = SGP/SGP4

EPOCH          = 2026-03-28T19:54:47.910816
MEAN_MOTION    = 14.82158060
ECCENTRICITY   = .0001543
INCLINATION    = 97.8908
RA_OF_ASC_NODE = 274.8303
ARG_OF_PERICENTER = 86.5562
MEAN_ANOMALY   = 273.5827

EPHEMERIS_TYPE = 0
CLASSIFICATION_TYPE = U
NORAD_CAT_ID   = 46265
ELEMENT_SET_NO = 999
REV_AT_EPOCH   = 30158
BSTAR          = .119E-3
MEAN_MOTION_DOT = .895E-5
MEAN_MOTION_DDOT = 0

CCSDS_OMM_VERS = 2.0
CREATION_DATE  = 
ORIGINATOR     = 

OBJECT_NAME    = CSS (TIANHE)
OBJECT_ID      = 2021-035A
CENTER_NAME    = EARTH
REF_FRAME      = TEME
TIME_SYSTEM    = UTC
MEAN_ELEMENT_THEORY = SGP/SGP4

EPOCH          = 2026-03-28T17:09:45.866016
MEAN_MOTION    = 15.61588811
ECCENTRICITY   = .0003974
INCLINATION    = 41.4668
RA_OF_ASC_NODE = 92.3127
ARG_OF_PERICENTER = 49.2611
MEAN_ANOMALY   = 310.8573

EPHEMERIS_TYPE = 0
CLASSIFICATION_TYPE = U
NORAD_CAT_ID   = 48274
ELEMENT_SET_NO = 999
REV_AT_EPOCH   = 28058
BSTAR          = .18634E-3
MEAN_MOTION_DOT = .16171E-3
MEAN_MOTION_DDOT = 0

CCSDS_OMM_VERS = 2.0
CREATION_DATE  = 
ORIGINATOR     = 

OBJECT_NAME    = COSMOS 2550
OBJECT_ID      = 2021-056A
CENTER_NAME    = EARTH
REF_FRAME      = TEME
TIME_SYSTEM    = UTC
MEAN_ELEMENT_THEORY = SGP/SGP4

EPOCH          = 2026-03-28T11:49:31.757952
MEAN_MOTION    = 15.33828274
ECCENTRICITY   = .000844
INCLINATION    = 67.1421
RA_OF_ASC_NODE = 344.0047
ARG_OF_PERICENTER = 269.5686
MEAN_ANOMALY   = 90.4502

EPHEMERIS_TYPE = 0
CLASSIFICATION_TYPE = U
NORAD_CAT_ID   = 48865
ELEMENT_SET_NO = 999
REV_AT_EPOCH   = 26634
BSTAR          = .189685E-6
MEAN_MOTION_DOT = -.186E-5
MEAN_MOTION_DDOT = 0

CCSDS_OMM_VERS = 2.0
CREATION_DATE  = 
ORIGINATOR     = 

OBJECT_NAME    = CZ-2C R/B
OBJECT_ID      = 2022-058K
CENTER_NAME    = EARTH
REF_FRAME      = TEME
TIME_SYSTEM    = UTC
MEAN_ELEMENT_THEORY = SGP/SGP4

EPOCH          = 2026-03-28T15:54:43.791840
MEAN_MOTION    = 15.55620973
ECCENTRICITY   = .004154
INCLINATION    = 50.1874
RA_OF_ASC_NODE = 220.5877
ARG_OF_PERICENTER = 282.1630
MEAN_ANOMALY   = 77.4689

EPHEMERIS_TYPE = 0
CLASSIFICATION_TYPE = U
NORAD_CAT_ID   = 52794
ELEMENT_SET_NO = 999
REV_AT_EPOCH   = 21308
BSTAR          = .63634E-3
MEAN_MOTION_DOT = .46065E-3
MEAN_MOTION_DDOT = 0

CCSDS_OMM_VERS = 2.0
CREATION_DATE  = 
ORIGINATOR     = 

OBJECT_NAME    = CZ-2C R/B
OBJECT_ID      = 2022-132E
CENTER_NAME    = EARTH
REF_FRAME      = TEME
TIME_SYSTEM    = UTC
MEAN_ELEMENT_THEORY = SGP/SGP4

EPOCH          = 2026-03-28T13:57:49.394880
MEAN_MOTION    = 15.63619581
ECCENTRICITY   = .0017701
INCLINATION    = 97.2960
RA_OF_ASC_NODE = 91.4974
ARG_OF_PERICENTER = 29.7061
MEAN_ANOMALY   = 330.5199

EPHEMERIS_TYPE = 0
CLASSIFICATION_TYPE = U
NORAD_CAT_ID   = 54039
ELEMENT_SET_NO = 999
REV_AT_EPOCH   = 19332
BSTAR          = .52079E-3
MEAN_MOTION_DOT = .48831E-3
MEAN_MOTION_DDOT = 0

CCSDS_OMM_VERS = 2.0
CREATION_DATE  = 
ORIGINATOR     = 

OBJECT_NAME    = GSLV R/B
OBJECT_ID      = 2022-138AN
CENTER_NAME    = EARTH
REF_FRAME      = TEME
TIME_SYSTEM    = UTC
MEAN_ELEMENT_THEORY = SGP/SGP4

EPOCH          = 2026-03-28T16:58:04.953792
MEAN_MOTION    = 14.96892763
ECCENTRICITY   = .0024052
INCLINATION    = 87.3861
RA_OF_ASC_NODE = 159.9961
ARG_OF_PERICENTER = 84.1110
MEAN_ANOMALY   = 276.2862

EPHEMERIS_TYPE = 0
CLASSIFICATION_TYPE = U
NORAD_CAT_ID   = 54149
ELEMENT_SET_NO = 999
REV_AT_EPOCH   = 18677
BSTAR          = .20808E-3
MEAN_MOTION_DOT = .2429E-4
MEAN_MOTION_DDOT = 0

